[
    {
        "Altitude(m)": 705677.1900745295,
        "Argument of Periapsis(deg)": 0.0,
        "Eccentricity": 0.0,
        "Inclination(deg)": 45.0,
        "Latitude(deg)": -11.613280622558422,
        "Longitude(deg)": -163.174476641623,
        "Mean Anomaly(deg)": 196.36359999999996,
        "RAAN(deg)": 105.0,
        "Satellite Name": "Constellation 1 474",
        "Satellite Number": 474,
        "Semi-Major Axis(m)": 7083131.272910544,
        "Time(s)": 0
    },
    {
        "Altitude(m)": 705687.8545320231,
        "Argument of Periapsis(deg)": 5.994800624540561e-05,
        "Eccentricity": 0.0,
        "Inclination(deg)": 45.0,
        "Latitude(deg)": -11.65554094137291,
        "Longitude(deg)": -163.13394741322276,
        "Mean Anomaly(deg)": 196.42430114024987,
        "RAAN(deg)": 104.99994341083443,
        "Satellite Name": "Constellation 1 474",
        "Satellite Number": 474,
        "Semi-Major Axis(m)": 7083131.272910544,
        "Time(s)": 1
    },
    {
        "Altitude(m)": 705698.5345597138,
        "Argument of Periapsis(deg)": 0.00011989601249081122,
        "Eccentricity": 0.0,
        "Inclination(deg)": 45.0,
        "Latitude(deg)": -11.697794119784486,
        "Longitude(deg)": -163.09340479307627,
        "Mean Anomaly(deg)": 196.4850022804998,
        "RAAN(deg)": 104.99988682166887,
        "Satellite Name": "Constellation 1 474",
        "Satellite Number": 474,
        "Semi-Major Axis(m)": 7083131.272910544,
        "Time(s)": 2
    },
    {
        "Altitude(m)": 705709.2301274576,
        "Argument of Periapsis(deg)": 0.00017984401873621686,
        "Eccentricity": 0.0,
        "Inclination(deg)": 45.0,
        "Latitude(deg)": -11.740040129500802,
        "Longitude(deg)": -163.0528487291983,
        "Mean Anomaly(deg)": 196.54570342074965,
        "RAAN(deg)": 104.9998302325033,
        "Satellite Name": "Constellation 1 474",
        "Satellite Number": 474,
        "Semi-Major Axis(m)": 7083131.272910544,
        "Time(s)": 3
    },
    {
        "Altitude(m)": 705719.9412050571,
        "Argument of Periapsis(deg)": 0.00023979202498162244,
        "Eccentricity": 0.0,
        "Inclination(deg)": 45.0,
        "Latitude(deg)": -11.782278942204053,
        "Longitude(deg)": -163.01227916957774,
        "Mean Anomaly(deg)": 196.60640456099958,
        "RAAN(deg)": 104.99977364333773,
        "Satellite Name": "Constellation 1 474",
        "Satellite Number": 474,
        "Semi-Major Axis(m)": 7083131.272910544,
        "Time(s)": 4
    },
    {
        "Altitude(m)": 705730.667762213,
        "Argument of Periapsis(deg)": 0.00029974003122702807,
        "Eccentricity": 0.0,
        "Inclination(deg)": 45.0,
        "Latitude(deg)": -11.824510529550555,
        "Longitude(deg)": -162.97169606217776,
        "Mean Anomaly(deg)": 196.66710570124943,
        "RAAN(deg)": 104.99971705417217,
        "Satellite Name": "Constellation 1 474",
        "Satellite Number": 474,
        "Semi-Major Axis(m)": 7083131.272910544,
        "Time(s)": 5
    },
    {
        "Altitude(m)": 705741.4097685651,
        "Argument of Periapsis(deg)": 0.00035968803747243373,
        "Eccentricity": 0.0,
        "Inclination(deg)": 45.0,
        "Latitude(deg)": -11.866734863170912,
        "Longitude(deg)": -162.9310993549356,
        "Mean Anomaly(deg)": 196.72780684149942,
        "RAAN(deg)": 104.99966046500658,
        "Satellite Name": "Constellation 1 474",
        "Satellite Number": 474,
        "Semi-Major Axis(m)": 7083131.272910544,
        "Time(s)": 6
    },
    {
        "Altitude(m)": 705752.1671936772,
        "Argument of Periapsis(deg)": 0.00041963604371783933,
        "Eccentricity": 0.0,
        "Inclination(deg)": 45.0,
        "Latitude(deg)": -11.908951914669364,
        "Longitude(deg)": -162.89048916385985,
        "Mean Anomaly(deg)": 196.7885079817493,
        "RAAN(deg)": 104.99960387584103,
        "Satellite Name": "Constellation 1 474",
        "Satellite Number": 474,
        "Semi-Major Axis(m)": 7083131.272910544,
        "Time(s)": 7
    },
    {
        "Altitude(m)": 705762.9400070345,
        "Argument of Periapsis(deg)": 0.0004795840499632449,
        "Eccentricity": 0.0,
        "Inclination(deg)": 45.0,
        "Latitude(deg)": -11.951161655625166,
        "Longitude(deg)": -162.84986510064175,
        "Mean Anomaly(deg)": 196.8492091219992,
        "RAAN(deg)": 104.99954728667547,
        "Satellite Name": "Constellation 1 474",
        "Satellite Number": 474,
        "Semi-Major Axis(m)": 7083131.272910544,
        "Time(s)": 8
    },
    {
        "Altitude(m)": 705773.7281780471,
        "Argument of Periapsis(deg)": 0.0005395320562086505,
        "Eccentricity": 0.0,
        "Inclination(deg)": 45.0,
        "Latitude(deg)": -11.993364057590473,
        "Longitude(deg)": -162.80922728123772,
        "Mean Anomaly(deg)": 196.909910262249,
        "RAAN(deg)": 104.99949069750988,
        "Satellite Name": "Constellation 1 474",
        "Satellite Number": 474,
        "Semi-Major Axis(m)": 7083131.272910544,
        "Time(s)": 9
    },
    {
        "Altitude(m)": 705784.531676056,
        "Argument of Periapsis(deg)": 0.0005994800624540561,
        "Eccentricity": 0.0,
        "Inclination(deg)": 45.0,
        "Latitude(deg)": -12.03555909209163,
        "Longitude(deg)": -162.76857565348092,
        "Mean Anomaly(deg)": 196.97061140249897,
        "RAAN(deg)": 104.99943410834432,
        "Satellite Name": "Constellation 1 474",
        "Satellite Number": 474,
        "Semi-Major Axis(m)": 7083131.272910544,
        "Time(s)": 10
    },
    {
        "Altitude(m)": 705795.3504703188,
        "Argument of Periapsis(deg)": 0.0006594280686994618,
        "Eccentricity": 0.0,
        "Inclination(deg)": 45.0,
        "Latitude(deg)": -12.077746730628443,
        "Longitude(deg)": -162.7279101651785,
        "Mean Anomaly(deg)": 197.03131254274888,
        "RAAN(deg)": 104.99937751917874,
        "Satellite Name": "Constellation 1 474",
        "Satellite Number": 474,
        "Semi-Major Axis(m)": 7083131.272910544,
        "Time(s)": 11
    },
    {
        "Altitude(m)": 705806.1845300255,
        "Argument of Periapsis(deg)": 0.0007193760749448675,
        "Eccentricity": 0.0,
        "Inclination(deg)": 45.0,
        "Latitude(deg)": -12.11992694467443,
        "Longitude(deg)": -162.6872307641112,
        "Mean Anomaly(deg)": 197.09201368299875,
        "RAAN(deg)": 104.99932093001317,
        "Satellite Name": "Constellation 1 474",
        "Satellite Number": 474,
        "Semi-Major Axis(m)": 7083131.272910544,
        "Time(s)": 12
    },
    {
        "Altitude(m)": 705817.0338242813,
        "Argument of Periapsis(deg)": 0.000779324081190273,
        "Eccentricity": 0.0,
        "Inclination(deg)": 45.0,
        "Latitude(deg)": -12.162099705676441,
        "Longitude(deg)": -162.64653739803373,
        "Mean Anomaly(deg)": 197.15271482324866,
        "RAAN(deg)": 104.99926434084762,
        "Satellite Name": "Constellation 1 474",
        "Satellite Number": 474,
        "Semi-Major Axis(m)": 7083131.272910544,
        "Time(s)": 13
    },
    {
        "Altitude(m)": 705827.8983221423,
        "Argument of Periapsis(deg)": 0.0008392720874356787,
        "Eccentricity": 0.0,
        "Inclination(deg)": 45.0,
        "Latitude(deg)": -12.204264985054822,
        "Longitude(deg)": -162.60583001467398,
        "Mean Anomaly(deg)": 197.21341596349853,
        "RAAN(deg)": 104.99920775168204,
        "Satellite Name": "Constellation 1 474",
        "Satellite Number": 474,
        "Semi-Major Axis(m)": 7083131.272910544,
        "Time(s)": 14
    },
    {
        "Altitude(m)": 705838.7779925509,
        "Argument of Periapsis(deg)": 0.0008992200936810842,
        "Eccentricity": 0.0,
        "Inclination(deg)": 45.0,
        "Latitude(deg)": -12.24642275420281,
        "Longitude(deg)": -162.5651087298308,
        "Mean Anomaly(deg)": 197.27411710374844,
        "RAAN(deg)": 104.99915116251647,
        "Satellite Name": "Constellation 1 474",
        "Satellite Number": 474,
        "Semi-Major Axis(m)": 7083131.272910544,
        "Time(s)": 15
    },
    {
        "Altitude(m)": 705849.6728044099,
        "Argument of Periapsis(deg)": 0.0009591680999264898,
        "Eccentricity": 0.0,
        "Inclination(deg)": 45.0,
        "Latitude(deg)": -12.288572984487583,
        "Longitude(deg)": -162.52437315498537,
        "Mean Anomaly(deg)": 197.33481824399837,
        "RAAN(deg)": 104.99909457335089,
        "Satellite Name": "Constellation 1 474",
        "Satellite Number": 474,
        "Semi-Major Axis(m)": 7083131.272910544,
        "Time(s)": 16
    },
    {
        "Altitude(m)": 705860.5827265324,
        "Argument of Periapsis(deg)": 0.0010191161061718953,
        "Eccentricity": 0.0,
        "Inclination(deg)": 45.0,
        "Latitude(deg)": -12.330715647248699,
        "Longitude(deg)": -162.48362340588324,
        "Mean Anomaly(deg)": 197.3955193842483,
        "RAAN(deg)": 104.99903798418532,
        "Satellite Name": "Constellation 1 474",
        "Satellite Number": 474,
        "Semi-Major Axis(m)": 7083131.272910544,
        "Time(s)": 17
    },
    {
        "Altitude(m)": 705871.5077276594,
        "Argument of Periapsis(deg)": 0.001079064112417301,
        "Eccentricity": 0.0,
        "Inclination(deg)": 45.0,
        "Latitude(deg)": -12.372850713798561,
        "Longitude(deg)": -162.4428594301467,
        "Mean Anomaly(deg)": 197.45622052449815,
        "RAAN(deg)": 104.99898139501974,
        "Satellite Name": "Constellation 1 474",
        "Satellite Number": 474,
        "Semi-Major Axis(m)": 7083131.272910544,
        "Time(s)": 18
    }
]